start=new Date('2021-09-14T00:00:00.000Z').valueOf();
sats=[{"OBJECT_ID":"2020-057N","CENTER_NAME":"EARTH","NORAD_CAT_ID":"46129","ELEMENT_SET_NO":"999","COUNTRY_CODE":"US","RA_OF_ASC_NODE":"69.0412","MEAN_MOTION_DDOT":"0.0000000000000","FILE":"3115005","ARG_OF_PERICENTER":"92.0884","MEAN_MOTION_DOT":"0.00001333","REF_FRAME":"TEME","SEMIMAJOR_AXIS":"6925.352","EPHEMERIS_TYPE":"0","MEAN_ANOMALY":"268.0291","TLE_LINE1":"1 46129U 20057N   21256.87901942  .00001333  00000-0  10836-3 0  9993","SITE":"AFETR","INCLINATION":"53.0551","LAUNCH_DATE":"2020-08-18","BSTAR":"0.00010836000000","CLASSIFICATION_TYPE":"U","PERIOD":"95.592","ECCENTRICITY":"0.00016230","TLE_LINE2":"2 46129  53.0551  69.0412 0001623  92.0884 268.0291 15.06398987 59770","APOAPSIS":"548.341","MEAN_MOTION":"15.06398987","RCS_SIZE":"LARGE","EPOCH":"2021-09-13T21:05:47.277888","DECAY_DATE":null,"MEAN_ELEMENT_THEORY":"SGP4","GP_ID":"184662637","PERIAPSIS":"546.093","OBJECT_TYPE":"PAYLOAD","REV_AT_EPOCH":"5977","OBJECT_NAME":"STARLINK-1623","TIME_SYSTEM":"UTC"},{"REF_FRAME":"TEME","SEMIMAJOR_AXIS":"6925.356","MEAN_ANOMALY":"262.0761","EPHEMERIS_TYPE":"0","MEAN_MOTION_DOT":"-0.00000810","LAUNCH_DATE":"2020-08-18","BSTAR":"-0.00003550400000","CLASSIFICATION_TYPE":"U","PERIOD":"95.592","TLE_LINE1":"1 46130U 20057P   21256.77950170 -.00000810  00000-0 -35504-4 0  9992","SITE":"AFETR","INCLINATION":"53.0542","CENTER_NAME":"EARTH","NORAD_CAT_ID":"46130","OBJECT_ID":"2020-057P","ARG_OF_PERICENTER":"98.0407","FILE":"3115005","ELEMENT_SET_NO":"999","RA_OF_ASC_NODE":"69.4884","COUNTRY_CODE":"US","MEAN_MOTION_DDOT":"0.0000000000000","MEAN_ELEMENT_THEORY":"SGP4","RCS_SIZE":"LARGE","EPOCH":"2021-09-13T18:42:28.946880","DECAY_DATE":null,"REV_AT_EPOCH":"6100","OBJECT_NAME":"STARLINK-1624","TIME_SYSTEM":"UTC","GP_ID":"184662887","PERIAPSIS":"546.130","OBJECT_TYPE":"PAYLOAD","ECCENTRICITY":"0.00015760","TLE_LINE2":"2 46130  53.0542  69.4884 0001576  98.0407 262.0761 15.06397561 61005","MEAN_MOTION":"15.06397561","APOAPSIS":"548.312"},{"TIME_SYSTEM":"UTC","OBJECT_NAME":"STARLINK-1625","REV_AT_EPOCH":"6072","OBJECT_TYPE":"PAYLOAD","PERIAPSIS":"545.841","GP_ID":"184663639","MEAN_ELEMENT_THEORY":"SGP4","DECAY_DATE":null,"RCS_SIZE":"LARGE","EPOCH":"2021-09-13T17:25:30.946368","MEAN_MOTION":"15.06395288","APOAPSIS":"548.615","TLE_LINE2":"2 46131  53.0550  89.7287 0002003  86.4720 273.6498 15.06395288 60729","ECCENTRICITY":"0.00020030","PERIOD":"95.592","CLASSIFICATION_TYPE":"U","BSTAR":"0.00004630000000","LAUNCH_DATE":"2020-08-18","INCLINATION":"53.0550","SITE":"AFETR","TLE_LINE1":"1 46131U 20057Q   21256.72605262  .00000408  00000-0  46300-4 0  9994","EPHEMERIS_TYPE":"0","MEAN_ANOMALY":"273.6498","SEMIMAJOR_AXIS":"6925.363","REF_FRAME":"TEME","MEAN_MOTION_DOT":"0.00000408","ARG_OF_PERICENTER":"86.4720","FILE":"3115005","MEAN_MOTION_DDOT":"0.0000000000000","RA_OF_ASC_NODE":"89.7287","COUNTRY_CODE":"US","ELEMENT_SET_NO":"999","NORAD_CAT_ID":"46131","CENTER_NAME":"EARTH","OBJECT_ID":"2020-057Q"},{"COUNTRY_CODE":"US","RA_OF_ASC_NODE":"108.9587","ELEMENT_SET_NO":"999","MEAN_MOTION_DDOT":"0.0000000000000","FILE":"3115005","ARG_OF_PERICENTER":"81.8407","OBJECT_ID":"2020-057R","CENTER_NAME":"EARTH","NORAD_CAT_ID":"46132","SITE":"AFETR","TLE_LINE1":"1 46132U 20057R   21256.89745036 -.00000334  00000-0 -35288-5 0  9991","INCLINATION":"53.0543","BSTAR":"-0.00000352880000","LAUNCH_DATE":"2020-08-18","PERIOD":"95.593","CLASSIFICATION_TYPE":"U","MEAN_MOTION_DOT":"-0.00000334","MEAN_ANOMALY":"278.2782","EPHEMERIS_TYPE":"0","SEMIMAJOR_AXIS":"6925.370","REF_FRAME":"TEME","APOAPSIS":"548.459","MEAN_MOTION":"15.06392905","ECCENTRICITY":"0.00017670","TLE_LINE2":"2 46132  53.0543 108.9587 0001767  81.8407 278.2782 15.06392905 60478","GP_ID":"184662620","OBJECT_TYPE":"PAYLOAD","PERIAPSIS":"546.012","REV_AT_EPOCH":"6047","TIME_SYSTEM":"UTC","OBJECT_NAME":"STARLINK-1630","DECAY_DATE":null,"RCS_SIZE":"LARGE","EPOCH":"2021-09-13T21:32:19.711104","MEAN_ELEMENT_THEORY":"SGP4"},{"ARG_OF_PERICENTER":"95.4217","FILE":"3115005","MEAN_MOTION_DDOT":"0.0000000000000","COUNTRY_CODE":"US","RA_OF_ASC_NODE":"68.9623","ELEMENT_SET_NO":"999","NORAD_CAT_ID":"46133","CENTER_NAME":"EARTH","OBJECT_ID":"2020-057S","PERIOD":"95.593","CLASSIFICATION_TYPE":"U","LAUNCH_DATE":"2020-08-18","BSTAR":"-0.00003745200000","INCLINATION":"53.0557","SITE":"AFETR","TLE_LINE1":"1 46133U 20057S   21256.89745384 -.00000839  00000-0 -37452-4 0  9992","MEAN_ANOMALY":"264.6956","EPHEMERIS_TYPE":"0","REF_FRAME":"TEME","SEMIMAJOR_AXIS":"6925.379","MEAN_MOTION_DOT":"-0.00000839","MEAN_MOTION":"15.06390159","APOAPSIS":"548.362","TLE_LINE2":"2 46133  53.0557  68.9623 0001615  95.4217 264.6956 15.06390159 61025","ECCENTRICITY":"0.00016150","TIME_SYSTEM":"UTC","OBJECT_NAME":"STARLINK-1637","REV_AT_EPOCH":"6102","OBJECT_TYPE":"PAYLOAD","PERIAPSIS":"546.125","GP_ID":"184663138","MEAN_ELEMENT_THEORY":"SGP4","DECAY_DATE":null,"RCS_SIZE":"LARGE","EPOCH":"2021-09-13T21:32:20.011776"},{"SEMIMAJOR_AXIS":"6925.361","REF_FRAME":"TEME","EPHEMERIS_TYPE":"0","MEAN_ANOMALY":"265.3679","MEAN_MOTION_DOT":"-0.00000486","BSTAR":"-0.00001369500000","LAUNCH_DATE":"2020-08-18","CLASSIFICATION_TYPE":"U","PERIOD":"95.592","TLE_LINE1":"1 46134U 20057T   21256.90113891 -.00000486  00000-0 -13695-4 0  9998","SITE":"AFETR","INCLINATION":"53.0557","CENTER_NAME":"EARTH","NORAD_CAT_ID":"46134","OBJECT_ID":"2020-057T","ARG_OF_PERICENTER":"94.7515","FILE":"3115005","ELEMENT_SET_NO":"999","COUNTRY_CODE":"US","RA_OF_ASC_NODE":"68.9506","MEAN_MOTION_DDOT":"0.0000000000000","MEAN_ELEMENT_THEORY":"SGP4","RCS_SIZE":"LARGE","EPOCH":"2021-09-13T21:37:38.401824","DECAY_DATE":null,"REV_AT_EPOCH":"5977","OBJECT_NAME":"STARLINK-1638","TIME_SYSTEM":"UTC","GP_ID":"184663388","PERIAPSIS":"545.982","OBJECT_TYPE":"PAYLOAD","ECCENTRICITY":"0.00017960","TLE_LINE2":"2 46134  53.0557  68.9506 0001796  94.7515 265.3679 15.06396015 59775","MEAN_MOTION":"15.06396015","APOAPSIS":"548.470"},{"SEMIMAJOR_AXIS":"6925.355","REF_FRAME":"TEME","MEAN_ANOMALY":"267.5036","EPHEMERIS_TYPE":"0","MEAN_MOTION_DOT":"-0.00000732","BSTAR":"-0.00003027400000","LAUNCH_DATE":"2020-08-18","CLASSIFICATION_TYPE":"U","PERIOD":"95.592","TLE_LINE1":"1 46135U 20057U   21256.91587826 -.00000732  00000-0 -30274-4 0  9999","SITE":"AFETR","INCLINATION":"53.0546","CENTER_NAME":"EARTH","NORAD_CAT_ID":"46135","OBJECT_ID":"2020-057U","FILE":"3115005","ARG_OF_PERICENTER":"92.6156","ELEMENT_SET_NO":"999","COUNTRY_CODE":"US","RA_OF_ASC_NODE":"68.8726","MEAN_MOTION_DDOT":"0.0000000000000","MEAN_ELEMENT_THEORY":"SGP4","RCS_SIZE":"LARGE","EPOCH":"2021-09-13T21:58:51.881664","DECAY_DATE":null,"REV_AT_EPOCH":"5977","OBJECT_NAME":"STARLINK-1639","TIME_SYSTEM":"UTC","GP_ID":"184664140","PERIAPSIS":"545.994","OBJECT_TYPE":"PAYLOAD","ECCENTRICITY":"0.00017700","TLE_LINE2":"2 46135  53.0546  68.8726 0001770  92.6156 267.5036 15.06397842 59777","MEAN_MOTION":"15.06397842","APOAPSIS":"548.446"},{"RCS_SIZE":"LARGE","EPOCH":"2021-09-13T21:33:40.066560","DECAY_DATE":null,"MEAN_ELEMENT_THEORY":"SGP4","PERIAPSIS":"546.018","OBJECT_TYPE":"PAYLOAD","GP_ID":"184663121","OBJECT_NAME":"STARLINK-1643","TIME_SYSTEM":"UTC","REV_AT_EPOCH":"5935","TLE_LINE2":"2 46136  53.0548  98.9617 0001738  83.6648 276.4539 15.06397403 59357","ECCENTRICITY":"0.00017380","APOAPSIS":"548.425","MEAN_MOTION":"15.06397403","MEAN_MOTION_DOT":"0.00002936","REF_FRAME":"TEME","SEMIMAJOR_AXIS":"6925.357","EPHEMERIS_TYPE":"0","MEAN_ANOMALY":"276.4539","INCLINATION":"53.0548","TLE_LINE1":"1 46136U 20057V   21256.89838040  .00002936  00000-0  21593-3 0  9993","SITE":"AFETR","PERIOD":"95.592","CLASSIFICATION_TYPE":"U","BSTAR":"0.00021593000000","LAUNCH_DATE":"2020-08-18","OBJECT_ID":"2020-057V","NORAD_CAT_ID":"46136","CENTER_NAME":"EARTH","MEAN_MOTION_DDOT":"0.0000000000000","ELEMENT_SET_NO":"999","COUNTRY_CODE":"US","RA_OF_ASC_NODE":"98.9617","FILE":"3115005","ARG_OF_PERICENTER":"83.6648"},{"GP_ID":"184662638","PERIAPSIS":"545.838","OBJECT_TYPE":"PAYLOAD","REV_AT_EPOCH":"5949","OBJECT_NAME":"STARLINK-1586","TIME_SYSTEM":"UTC","RCS_SIZE":"LARGE","EPOCH":"2021-09-13T22:01:31.579968","DECAY_DATE":null,"MEAN_ELEMENT_THEORY":"SGP4","APOAPSIS":"548.626","MEAN_MOTION":"15.06394110","ECCENTRICITY":"0.00020130","TLE_LINE2":"2 46137  53.0536  88.8655 0002013  83.6630 276.4588 15.06394110 59494","TLE_LINE1":"1 46137U 20057W   21256.91772662 -.00000764  00000-0 -32370-4 0  9999","SITE":"AFETR","INCLINATION":"53.0536","BSTAR":"-0.00003237000000","LAUNCH_DATE":"2020-08-18","PERIOD":"95.593","CLASSIFICATION_TYPE":"U","MEAN_MOTION_DOT":"-0.00000764","REF_FRAME":"TEME","SEMIMAJOR_AXIS":"6925.367","MEAN_ANOMALY":"276.4588","EPHEMERIS_TYPE":"0","ELEMENT_SET_NO":"999","RA_OF_ASC_NODE":"88.8655","COUNTRY_CODE":"US","MEAN_MOTION_DDOT":"0.0000000000000","FILE":"3115005","ARG_OF_PERICENTER":"83.6630","OBJECT_ID":"2020-057W","CENTER_NAME":"EARTH","NORAD_CAT_ID":"46137"},{"TLE_LINE2":"2 46138  53.0542 109.4673 0002080  80.7108 279.4116 15.06381393 59190","ECCENTRICITY":"0.00020800","APOAPSIS":"548.711","MEAN_MOTION":"15.06381393","DECAY_DATE":null,"RCS_SIZE":"LARGE","EPOCH":"2021-09-13T18:47:48.543936","MEAN_ELEMENT_THEORY":"SGP4","OBJECT_TYPE":"PAYLOAD","PERIAPSIS":"545.830","GP_ID":"184662888","TIME_SYSTEM":"UTC","OBJECT_NAME":"STARLINK-1590","REV_AT_EPOCH":"5919","OBJECT_ID":"2020-057X","NORAD_CAT_ID":"46138","CENTER_NAME":"EARTH","MEAN_MOTION_DDOT":"0.0000000000000","RA_OF_ASC_NODE":"109.4673","COUNTRY_CODE":"US","ELEMENT_SET_NO":"999","FILE":"3115005","ARG_OF_PERICENTER":"80.7108","MEAN_MOTION_DOT":"-0.00002221","EPHEMERIS_TYPE":"0","MEAN_ANOMALY":"279.4116","SEMIMAJOR_AXIS":"6925.406","REF_FRAME":"TEME","INCLINATION":"53.0542","SITE":"AFETR","TLE_LINE1":"1 46138U 20057X   21256.78320074 -.00002221  00000-0 -13032-3 0  9994","PERIOD":"95.593","CLASSIFICATION_TYPE":"U","BSTAR":"-0.00013032000000","LAUNCH_DATE":"2020-08-18"}];
